COSMOS 2251 DEB         
1 34424U 93036RR  17345.74876250  .00001229  00000-0  20624-3 0  9998
2 34424  74.0180 357.3698 0046581 150.4161 325.7872 14.70180402468843
